NORAD_CAT_ID,OBJECT_NAME,OBJECT_TYPE,EPOCH,MEAN_MOTION,ECCENTRICITY,INCLINATION,RA_OF_ASC_NODE,ARG_OF_PERICENTER,MEAN_ANOMALY,BSTAR,MEAN_MOTION_DOT,MEAN_MOTION_DDOT,TLE_LINE0,TLE_LINE1,TLE_LINE2,SEMIMAJOR_AXIS,PERIOD,APOGEE,PERIGEE,DECAYED
52650.0,STARLINK-3891,PAYLOAD,2024-02-05 12:14:57,15.08849019,0.0001919,53.2188,75.2671,112.1763,247.9433,3.2537e-05,2.3e-06,0.0,0 STARLINK-3891,1 52650U 22052BE  24036.51038375  .00000230  00000-0  32537-4 0  9995,2 52650  53.2188  75.2671 0001919 112.1763 247.9433 15.08849019 96064,6917.853,95.437,541.045,538.39,0.0
52650.0,STARLINK-3891,PAYLOAD,2024-02-06 02:33:26,15.08835398,0.0001729,53.2185,72.5876,109.6131,250.5048,2.1136e-05,4.8e-07,0.0,0 STARLINK-3891,1 52650U 22052BE  24037.10655412  .00000048  00000-0  21136-4 0  9998,2 52650  53.2185  72.5876 0001729 109.6131 250.5048 15.08835398 96525,6917.894,95.438,540.956,538.563,0.0
52650.0,STARLINK-3891,PAYLOAD,2024-02-06 08:54:58,15.08836907,0.0001667,53.2179,71.4001,101.8544,258.2635,8.3164e-05,1.036e-05,0.0,0 STARLINK-3891,1 52650U 22052BE  24037.37151224  .00001036  00000-0  83164-4 0  9996,2 52650  53.2179  71.4001 0001667 101.8544 258.2635 15.08836907 96196,6917.89,95.438,540.908,538.602,0.0
52650.0,STARLINK-3891,PAYLOAD,2024-02-07 08:45:45,15.08846152,0.0001534,53.2187,66.9467,92.6691,267.4477,5.244e-05,5.47e-06,0.0,0 STARLINK-3891,1 52650U 22052BE  24038.36511045  .00000547  00000-0  52440-4 0  9996,2 52650  53.2187  66.9467 0001534  92.6691 267.4477 15.08846152 96710,6917.862,95.437,540.788,538.665,0.0
52650.0,STARLINK-3891,PAYLOAD,2024-02-07 18:18:04,15.08842075,0.0001482,53.2179,65.1604,87.9331,272.1831,-1.1182e-05,-4.66e-06,0.0,0 STARLINK-3891,1 52650U 22052BE  24038.76255462 -.00000466  00000-0 -11182-4 0  9998,2 52650  53.2179  65.1604 0001482  87.9331 272.1831 15.08842075 96778,6917.874,95.437,540.764,538.714,0.0
52650.0,STARLINK-3891,PAYLOAD,2024-02-08 08:36:33,15.08834629,0.0001573,53.2183,62.4862,90.9485,269.1688,4.6525e-05,4.52e-06,0.0,0 STARLINK-3891,1 52650U 22052BE  24039.35871873  .00000452  00000-0  46525-4 0  9996,2 52650  53.2183  62.4862 0001573  90.9485 269.1688 15.08834629 96495,6917.897,95.438,540.85,538.674,0.0
52650.0,STARLINK-3891,PAYLOAD,2024-02-09 10:02:43,15.08844434,0.0001701,53.2183,57.7286,102.2798,257.8385,4.4414e-05,4.19e-06,0.0,0 STARLINK-3891,1 52650U 22052BE  24040.41855676  .00000419  00000-0  44414-4 0  9996,2 52650  53.2183  57.7286 0001701 102.2798 257.8385 15.08844434 97022,6917.867,95.437,540.909,538.555,0.0
52650.0,STARLINK-3891,PAYLOAD,2024-02-10 09:53:30,15.08841188,0.0001608,53.2184,53.2677,90.5843,269.5334,0.00011545,1.55e-05,0.0,0 STARLINK-3891,1 52650U 22052BE  24041.41216148  .00001550  00000-0  11545-3 0  9997,2 52650  53.2184  53.2677 0001608  90.5843 269.5334 15.08841188 97177,6917.877,95.437,540.854,538.629,0.0
52650.0,STARLINK-3891,PAYLOAD,2024-02-10 19:25:49,15.08836748,0.0001673,53.2185,51.4818,90.9635,269.1549,8.6818e-05,1.094e-05,0.0,0 STARLINK-3891,1 52650U 22052BE  24041.80960630  .00001094  00000-0  86818-4 0  9991,2 52650  53.2185  51.4818 0001673  90.9635 269.1549 15.08836748 96865,6917.89,95.438,540.913,538.598,0.0
52650.0,STARLINK-3891,PAYLOAD,2024-02-11 08:08:54,15.08845408,0.0001669,53.2183,49.1036,91.1086,269.0097,8.7139e-05,1.099e-05,0.0,0 STARLINK-3891,1 52650U 22052BE  24042.33952115  .00001099  00000-0  87139-4 0  9991,2 52650  53.2183  49.1036 0001669  91.1086 269.0097 15.08845408 96946,6917.864,95.437,540.883,538.574,0.0
52650.0,STARLINK-3891,PAYLOAD,2024-02-12 00:02:45,15.08847307,0.0001604,53.2184,46.1305,84.1884,275.9291,8.2424e-05,1.024e-05,0.0,0 STARLINK-3891,1 52650U 22052BE  24043.00192071  .00001024  00000-0  82424-4 0  9993,2 52650  53.2184  46.1305 0001604  84.1884 275.9291 15.08847307 97415,6917.858,95.437,540.833,538.613,0.0
52650.0,STARLINK-3891,PAYLOAD,2024-02-12 06:24:18,15.0885159,0.0001649,53.2186,44.9415,82.1337,277.9842,0.00011747,1.583e-05,0.0,0 STARLINK-3891,1 52650U 22052BE  24043.26687740  .00001583  00000-0  11747-3 0  9992,2 52650  53.2186  44.9415 0001649  82.1337 277.9842 15.08851590 97081,6917.845,95.437,540.851,538.569,0.0
52650.0,STARLINK-3891,PAYLOAD,2024-02-13 03:04:19,15.08839066,0.0001555,53.2194,41.0759,91.8476,268.2695,2.4663e-05,1.05e-06,0.0,0 STARLINK-3891,1 52650U 22052BE  24044.12800636  .00000105  00000-0  24663-4 0  9990,2 52650  53.2194  41.0759 0001555  91.8476 268.2695 15.08839066 97584,6917.883,95.438,540.824,538.673,0.0
52650.0,STARLINK-3891,PAYLOAD,2024-02-13 06:15:05,15.08840842,0.0001647,53.219,40.4807,97.0085,263.1094,4.3484e-05,4.04e-06,0.0,0 STARLINK-3891,1 52650U 22052BE  24044.26048555  .00000404  00000-0  43484-4 0  9993,2 52650  53.2190  40.4807 0001647  97.0085 263.1094 15.08840842 97236,6917.878,95.438,540.882,538.603,0.0
52650.0,STARLINK-3891,PAYLOAD,2024-02-14 04:30:29,15.08848008,0.0001542,53.2188,36.313,105.0934,255.0229,-1.5352e-05,-5.32e-06,0.0,0 STARLINK-3891,1 52650U 22052BE  24045.18784189 -.00000532  00000-0 -15352-4 0  9992,2 52650  53.2188  36.3130 0001542 105.0934 255.0229 15.08848008 97741,6917.856,95.437,540.788,538.654,0.0
52650.0,STARLINK-3891,PAYLOAD,2024-02-14 06:05:52,15.08847417,0.0001423,53.219,36.0187,94.4147,265.7008,4.8258e-05,4.8e-06,0.0,0 STARLINK-3891,1 52650U 22052BE  24045.25408077  .00000480  00000-0  48258-4 0  9990,2 52650  53.2190  36.0187 0001423  94.4147 265.7008 15.08847417 97384,6917.858,95.437,540.707,538.738,0.0
52650.0,STARLINK-3891,PAYLOAD,2024-02-14 21:59:44,15.08840985,0.0001534,53.2196,33.0489,92.8795,267.2373,3.4348e-05,2.59e-06,0.0,0 STARLINK-3891,1 52650U 22052BE  24045.91648613  .00000259  00000-0  34348-4 0  9994,2 52650  53.2196  33.0489 0001534  92.8795 267.2373 15.08840985 97482,6917.877,95.437,540.804,538.681,0.0
52650.0,STARLINK-3891,PAYLOAD,2024-02-15 02:45:54,15.08833096,0.0001362,53.2196,32.1553,90.9215,269.1934,8.4085e-05,1.05e-05,0.0,0 STARLINK-3891,1 52650U 22052BE  24046.11521131  .00001050  00000-0  84085-4 0  9995,2 52650  53.2196  32.1553 0001362  90.9215 269.1934 15.08833096 97882,6917.901,95.438,540.709,538.824,0.0
52650.0,STARLINK-3891,PAYLOAD,2024-02-15 05:56:39,15.08844679,0.0001366,53.2191,31.5565,99.4375,260.6772,0.00015857,2.237e-05,0.0,0 STARLINK-3891,1 52650U 22052BE  24046.24768173  .00002237  00000-0  15857-3 0  9996,2 52650  53.2191  31.5565 0001366  99.4375 260.6772 15.08844679 97906,6917.866,95.437,540.676,538.786,0.0
52650.0,STARLINK-3891,PAYLOAD,2024-02-15 15:28:58,15.0884004,0.0001414,53.2187,29.775,92.5317,267.5837,9.2329e-05,1.182e-05,0.0,0 STARLINK-3891,1 52650U 22052BE  24046.64512671  .00001182  00000-0  92329-4 0  9998,2 52650  53.2187  29.7750 0001414  92.5317 267.5837 15.08840040 97962,6917.88,95.438,540.723,538.767,0.0
52650.0,STARLINK-3891,PAYLOAD,2024-02-15 21:50:31,15.08841949,0.0001521,53.2202,28.588,102.2607,257.8555,2.0262e-05,3.5e-07,0.0,0 STARLINK-3891,1 52650U 22052BE  24046.91008853  .00000035  00000-0  20262-4 0  9993,2 52650  53.2202  28.5880 0001521 102.2607 257.8555 15.08841949 97633,6917.874,95.437,540.792,538.687,0.0
52650.0,STARLINK-3891,PAYLOAD,2024-02-16 07:22:50,15.08843504,0.0001528,53.221,26.8024,94.0973,266.0194,3.973e-05,3.44e-06,0.0,0 STARLINK-3891,1 52650U 22052BE  24047.30752798  .00000344  00000-0  39730-4 0  9994,2 52650  53.2210  26.8024 0001528  94.0973 266.0194 15.08843504 97690,6917.87,95.437,540.792,538.678,0.0
52650.0,STARLINK-3891,PAYLOAD,2024-02-16 21:41:19,15.0883474,0.0001364,53.221,24.1251,97.3955,262.7192,5.1915e-05,5.38e-06,0.0,0 STARLINK-3891,1 52650U 22052BE  24047.90369519  .00000538  00000-0  51915-4 0  9999,2 52650  53.2210  24.1251 0001364  97.3955 262.7192 15.08834740 97780,6917.896,95.438,540.705,538.818,0.0
52650.0,STARLINK-3891,PAYLOAD,2024-02-17 04:02:51,15.08836001,0.0001436,53.2195,22.9351,96.9608,263.1547,6.1347e-05,6.88e-06,0.0,0 STARLINK-3891,1 52650U 22052BE  24048.16865484  .00000688  00000-0  61347-4 0  9996,2 52650  53.2195  22.9351 0001436  96.9608 263.1547 15.08836001 98196,6917.893,95.438,540.751,538.764,0.0
52650.0,STARLINK-3891,PAYLOAD,2024-02-17 07:13:37,15.08845783,0.0001492,53.2205,22.3395,90.887,269.2293,7.585e-05,9.2e-06,0.0,0 STARLINK-3891,1 52650U 22052BE  24048.30112938  .00000920  00000-0  75850-4 0  9994,2 52650  53.2205  22.3395 0001492  90.8870 269.2293 15.08845783 98211,6917.863,95.437,540.76,538.696,0.0
52650.0,STARLINK-3891,PAYLOAD,2024-02-17 15:10:33,15.08845045,0.000156,53.221,20.8538,97.3834,262.7336,-8.4431e-06,-4.22e-06,0.0,0 STARLINK-3891,1 52650U 22052BE  24048.63233111 -.00000422  00000-0 -84431-5 0  9992,2 52650  53.2210  20.8538 0001560  97.3834 262.7336 15.08845045 97897,6917.865,95.437,540.809,538.651,0.0
52650.0,STARLINK-3891,PAYLOAD,2024-02-18 07:04:24,15.08850925,0.0001543,53.2195,17.8788,89.48,270.6369,0.00021055,3.065e-05,0.0,0 STARLINK-3891,1 52650U 22052BE  24049.29472589  .00003065  00000-0  21055-3 0  9994,2 52650  53.2195  17.8788 0001543  89.4800 270.6369 15.08850925 97996,6917.847,95.437,540.779,538.645,0.0
52650.0,STARLINK-3891,PAYLOAD,2024-02-18 15:01:20,15.08844409,0.0001686,53.2201,16.3941,81.6142,278.5041,9.1769e-05,1.173e-05,0.0,0 STARLINK-3891,1 52650U 22052BE  24049.62592952  .00001173  00000-0  91769-4 0  9996,2 52650  53.2201  16.3941 0001686  81.6142 278.5041 15.08844409 98412,6917.867,95.437,540.898,538.566,0.0
52650.0,STARLINK-3891,PAYLOAD,2024-02-18 21:22:53,15.08840596,0.0001676,53.2197,15.2057,77.5089,282.609,0.00011042,1.47e-05,0.0,0 STARLINK-3891,1 52650U 22052BE  24049.89089124  .00001470  00000-0  11042-3 0  9992,2 52650  53.2197  15.2057 0001676  77.5089 282.6090 15.08840596 98081,6917.879,95.438,540.903,538.584,0.0
52650.0,STARLINK-3891,PAYLOAD,2024-02-19 03:44:25,15.08841016,0.0001219,53.2202,14.0127,88.1124,272.0007,4.9064e-05,4.93e-06,0.0,0 STARLINK-3891,1 52650U 22052BE  24050.15585295  .00000493  00000-0  49064-4 0  9993,2 52650  53.2202  14.0127 0001219  88.1124 272.0007 15.08841016 98498,6917.877,95.437,540.586,538.899,0.0
